<?xml version="1.0" encoding="UTF-8"?>
<kml xmlns="http://www.opengis.net/kml/2.2">
<Document>
  <name>Rio das Mortes 2026 - Revisão de POIs</name>
  <description>Arquivo derivado para revisão. O KML original permanece intacto.</description>
  <Style id="route"><LineStyle><color>ff4444ff</color><width>4</width></LineStyle></Style>
  <Style id="review"><IconStyle><scale>1.1</scale><Icon><href>http://maps.google.com/mapfiles/kml/pushpin/ylw-pushpin.png</href></Icon></IconStyle><LabelStyle><scale>0.9</scale></LabelStyle></Style>
  <Style id="logistics"><IconStyle><scale>0.9</scale><Icon><href>http://maps.google.com/mapfiles/kml/pushpin/blu-pushpin.png</href></Icon></IconStyle><LabelStyle><scale>0.75</scale></LabelStyle></Style>
  <Style id="km"><IconStyle><scale>0.55</scale><Icon><href>http://maps.google.com/mapfiles/kml/shapes/placemark_circle.png</href></Icon></IconStyle><LabelStyle><scale>0.75</scale></LabelStyle></Style>
  <Folder>
    <name>1 - Rota e quilômetros</name>
    <Placemark><name>Rota Vila Berrante - Novo Santo Antônio</name><styleUrl>#route</styleUrl><LineString><tessellate>1</tessellate><coordinates>-51.0248695568,-12.8170000872,0 -51.0242636494,-12.8134593329,0 -51.0132158517,-12.8030435404,0 -51.0111697592,-12.7923351413,0 -51.0066610086,-12.7861295352,0 -50.9955479211,-12.7865440644,0 -50.9909996024,-12.7856225992,0 -50.9889388121,-12.7837695524,0 -50.9892745449,-12.7799300417,0 -50.9917499045,-12.7756927741,0 -50.9981275454,-12.7717511967,0 -51.0045068591,-12.7705826460,0 -51.0048602364,-12.7677594374,0 -51.0022535872,-12.7650724683,0 -50.9961421740,-12.7643285670,0 -50.9880102489,-12.7684630415,0 -50.9815749159,-12.7691812472,0 -50.9741596099,-12.7607705578,0 -50.9750488104,-12.7493262658,0 -50.9833989995,-12.7432815755,0 -50.9928019205,-12.7397561241,0 -50.9967479570,-12.7323326693,0 -50.9936158688,-12.7237354430,0 -50.9795044925,-12.7188310539,0 -50.9667598502,-12.7164425612,0 -50.9566833633,-12.7096687407,0 -50.9468498967,-12.6991043704,0 -50.9431239953,-12.6875806769,0 -50.9349483877,-12.6831698893,0 -50.9255400524,-12.6851204674,0 -50.9227011946,-12.6827695811,0 -50.9243623894,-12.6740372327,0 -50.9340916905,-12.6655855398,0 -50.9354734267,-12.6576114286,0 -50.9304393488,-12.6507439041,0 -50.9362492210,-12.6404977917,0 -50.9309924916,-12.6335767221,0 -50.9232319323,-12.6262361303,0 -50.9318140391,-12.6121521070,0 -50.9371310131,-12.6023861728,0 -50.9461542759,-12.5916501316,0 -50.9480977030,-12.5760265654,0 -50.9616620761,-12.5626666182,0 -50.9612393007,-12.5560114033,0 -50.9536420950,-12.5495814641,0 -50.9491285658,-12.5428709994,0 -50.9574164143,-12.5365735018,0 -50.9580195578,-12.5306324497,0 -50.9539860999,-12.5207197137,0 -50.9578592020,-12.5139364050,0 -50.9636761175,-12.5170503138,0 -50.9650613272,-12.5296855260,0 -50.9707688049,-12.5314345389,0 -50.9741988735,-12.5270163885,0 -50.9811759944,-12.5256011046,0 -50.9804203202,-12.5179854313,0 -50.9877982187,-12.5129564017,0 -50.9861643445,-12.5089105880,0 -50.9797145084,-12.5060240952,0 -50.9774813946,-12.5022759586,0 -50.9791434745,-12.4976394036,0 -50.9935026480,-12.4921210396,0 -50.9953357760,-12.4839934796,0 -50.9870512089,-12.4635195384,0 -50.9892654183,-12.4452366423,0 -50.9844309364,-12.4291735535,0 -50.9773693345,-12.4175283993,0 -50.9788629656,-12.4088022029,0 -50.9911850825,-12.4047546748,0 -50.9952649564,-12.4005509373,0 -50.9853109555,-12.3861582182,0 -50.9858486214,-12.3801182534,0 -50.9932153446,-12.3721147644,0 -50.9928070186,-12.3660385840,0 -50.9847382303,-12.3617662554,0 -50.9757926423,-12.3626257581,0 -50.9667479667,-12.3743625712,0 -50.9547614790,-12.3765170005,0 -50.9468603669,-12.3729626960,0 -50.9530764722,-12.3457368435,0 -50.9582839098,-12.3294252194,0 -50.9586110708,-12.3163480797,0 -50.9679115216,-12.3042095133,0 -50.9691395856,-12.2994515424,0</coordinates></LineString></Placemark>

    <Placemark>
      <name>INÍCIO</name>
      <styleUrl>#km</styleUrl>
      <Point><coordinates>-51.0248695568,-12.8170000872,0</coordinates></Point>
    </Placemark>
    <Placemark>
      <name>KM 10</name>
      <styleUrl>#km</styleUrl>
      <Point><coordinates>-50.9963695761,-12.7643562471,0</coordinates></Point>
    </Placemark>
    <Placemark>
      <name>KM 20</name>
      <styleUrl>#km</styleUrl>
      <Point><coordinates>-50.9796864890,-12.7188943065,0</coordinates></Point>
    </Placemark>
    <Placemark>
      <name>KM 30</name>
      <styleUrl>#km</styleUrl>
      <Point><coordinates>-50.9303190656,-12.6688627605,0</coordinates></Point>
    </Placemark>
    <Placemark>
      <name>KM 40</name>
      <styleUrl>#km</styleUrl>
      <Point><coordinates>-50.9437317236,-12.5945325282,0</coordinates></Point>
    </Placemark>
    <Placemark>
      <name>KM 50</name>
      <styleUrl>#km</styleUrl>
      <Point><coordinates>-50.9541148315,-12.5204942546,0</coordinates></Point>
    </Placemark>
    <Placemark>
      <name>KM 60</name>
      <styleUrl>#km</styleUrl>
      <Point><coordinates>-50.9867117201,-12.4947308564,0</coordinates></Point>
    </Placemark>
    <Placemark>
      <name>KM 70</name>
      <styleUrl>#km</styleUrl>
      <Point><coordinates>-50.9780081511,-12.4137962600,0</coordinates></Point>
    </Placemark>
    <Placemark>
      <name>KM 80</name>
      <styleUrl>#km</styleUrl>
      <Point><coordinates>-50.9706508313,-12.3692980234,0</coordinates></Point>
    </Placemark>
    <Placemark>
      <name>KM 90</name>
      <styleUrl>#km</styleUrl>
      <Point><coordinates>-50.9617574430,-12.3122415638,0</coordinates></Point>
    </Placemark>
    <Placemark>
      <name>FIM</name>
      <styleUrl>#km</styleUrl>
      <Point><coordinates>-50.9691395856,-12.2994515424,0</coordinates></Point>
    </Placemark>
  </Folder>
  <Folder>
    <name>2 - REVISAR PRIMEIRO - POIs até 2 km da rota (10)</name>

    <Placemark>
      <name>R01 | KM 0.2 | Vila Berrante</name>
      <styleUrl>#review</styleUrl>
      <description>Sugestão: Acesso / entrada
Distância da rota: 0.16 km

REVISAR:
1. Manter ou remover do app?
2. Nome está correto?
3. Categoria/ícone está correto?
4. Há telefone, contato, alerta ou observação útil?</description>
      <Point><coordinates>-51.0260868411,-12.8152885483,0</coordinates></Point>
    </Placemark>
    <Placemark>
      <name>R02 | KM 0.4 | Rancho Cardume</name>
      <styleUrl>#review</styleUrl>
      <description>Sugestão: Rancho / referência
Distância da rota: 0.25 km

REVISAR:
1. Manter ou remover do app?
2. Nome está correto?
3. Categoria/ícone está correto?
4. Há telefone, contato, alerta ou observação útil?</description>
      <Point><coordinates>-51.0264876938,-12.8129261055,0</coordinates></Point>
    </Placemark>
    <Placemark>
      <name>R03 | KM 8.8 | Rancho Parreira</name>
      <styleUrl>#review</styleUrl>
      <description>Sugestão: Rancho / referência
Distância da rota: 0.15 km

REVISAR:
1. Manter ou remover do app?
2. Nome está correto?
3. Categoria/ícone está correto?
4. Há telefone, contato, alerta ou observação útil?</description>
      <Point><coordinates>-51.0060466402,-12.7694826240,0</coordinates></Point>
    </Placemark>
    <Placemark>
      <name>R04 | KM 16.7 | Faz Pandolfi</name>
      <styleUrl>#review</styleUrl>
      <description>Sugestão: Fazenda / referência
Distância da rota: 0.28 km

REVISAR:
1. Manter ou remover do app?
2. Nome está correto?
3. Categoria/ícone está correto?
4. Há telefone, contato, alerta ou observação útil?</description>
      <Point><coordinates>-50.9963458673,-12.7386285477,0</coordinates></Point>
    </Placemark>
    <Placemark>
      <name>R05 | KM 20.0 | Rancho do Gerson</name>
      <styleUrl>#review</styleUrl>
      <description>Sugestão: Rancho / referência
Distância da rota: 0.29 km

REVISAR:
1. Manter ou remover do app?
2. Nome está correto?
3. Categoria/ícone está correto?
4. Há telefone, contato, alerta ou observação útil?</description>
      <Point><coordinates>-50.9809992689,-12.7165368569,0</coordinates></Point>
    </Placemark>
    <Placemark>
      <name>R06 | KM 35.8 | Faz</name>
      <styleUrl>#review</styleUrl>
      <description>Sugestão: Fazenda / referência
Distância da rota: 0.42 km

REVISAR:
1. Manter ou remover do app?
2. Nome está correto?
3. Categoria/ícone está correto?
4. Há telefone, contato, alerta ou observação útil?</description>
      <Point><coordinates>-50.9193570745,-12.6259265089,0</coordinates></Point>
    </Placemark>
    <Placemark>
      <name>R07 | KM 57.0 | Faz do seu Domingos</name>
      <styleUrl>#review</styleUrl>
      <description>Sugestão: Fazenda / referência
Distância da rota: 0.24 km

REVISAR:
1. Manter ou remover do app?
2. Nome está correto?
3. Categoria/ícone está correto?
4. Há telefone, contato, alerta ou observação útil?</description>
      <Point><coordinates>-50.9893612958,-12.5110444033,0</coordinates></Point>
    </Placemark>
    <Placemark>
      <name>R08 | KM 62.9 | Barreira Amarela</name>
      <styleUrl>#review</styleUrl>
      <description>Sugestão: Referência a confirmar
Distância da rota: 0.20 km

REVISAR:
1. Manter ou remover do app?
2. Nome está correto?
3. Categoria/ícone está correto?
4. Há telefone, contato, alerta ou observação útil?</description>
      <Point><coordinates>-50.9932000159,-12.4738569542,0</coordinates></Point>
    </Placemark>
    <Placemark>
      <name>R09 | KM 91.6 | Pousada Maytha</name>
      <styleUrl>#review</styleUrl>
      <description>Sugestão: Pousada / apoio
Distância da rota: 0.03 km

REVISAR:
1. Manter ou remover do app?
2. Nome está correto?
3. Categoria/ícone está correto?
4. Há telefone, contato, alerta ou observação útil?</description>
      <Point><coordinates>-50.9692651189,-12.3000450468,0</coordinates></Point>
    </Placemark>
    <Placemark>
      <name>R10 | KM 91.7 | Novo Sto Antônio</name>
      <styleUrl>#review</styleUrl>
      <description>Sugestão: Cidade / apoio
Distância da rota: 1.66 km

REVISAR:
1. Manter ou remover do app?
2. Nome está correto?
3. Categoria/ícone está correto?
4. Há telefone, contato, alerta ou observação útil?</description>
      <Point><coordinates>-50.9747791724,-12.2854724953,0</coordinates></Point>
    </Placemark>
  </Folder>
  <Folder>
    <name>3 - Referências logísticas fora da rota (9)</name>

    <Placemark>
      <name>L01 | KM 0.0 | Faz Shibata</name>
      <styleUrl>#logistics</styleUrl>
      <description>Sugestão: Fazenda / referência
Distância da rota: 55.52 km

REVISAR:
1. Manter ou remover do app?
2. Nome está correto?
3. Categoria/ícone está correto?
4. Há telefone, contato, alerta ou observação útil?</description>
      <Point><coordinates>-51.2198270486,-13.2811250287,0</coordinates></Point>
    </Placemark>
    <Placemark>
      <name>L02 | KM 6.1 | Luiz Alves</name>
      <styleUrl>#logistics</styleUrl>
      <description>Sugestão: Cidade / apoio
Distância da rota: 64.93 km

REVISAR:
1. Manter ou remover do app?
2. Nome está correto?
3. Categoria/ícone está correto?
4. Há telefone, contato, alerta ou observação útil?</description>
      <Point><coordinates>-50.5822962005,-13.2140299903,0</coordinates></Point>
    </Placemark>
    <Placemark>
      <name>L03 | KM 91.7 | Kuriala</name>
      <styleUrl>#logistics</styleUrl>
      <description>Sugestão: Cidade / apoio
Distância da rota: 70.59 km

REVISAR:
1. Manter ou remover do app?
2. Nome está correto?
3. Categoria/ícone está correto?
4. Há telefone, contato, alerta ou observação útil?</description>
      <Point><coordinates>-50.7085442563,-11.7146442470,0</coordinates></Point>
    </Placemark>
    <Placemark>
      <name>L04 | KM 91.7 | São Felix</name>
      <styleUrl>#logistics</styleUrl>
      <description>Sugestão: Cidade / apoio
Distância da rota: 82.16 km

REVISAR:
1. Manter ou remover do app?
2. Nome está correto?
3. Categoria/ícone está correto?
4. Há telefone, contato, alerta ou observação útil?</description>
      <Point><coordinates>-50.6673886708,-11.6181089072,0</coordinates></Point>
    </Placemark>
    <Placemark>
      <name>L05 | KM 0.0 | Faz São Domingos</name>
      <styleUrl>#logistics</styleUrl>
      <description>Sugestão: Fazenda / referência
Distância da rota: 91.15 km

REVISAR:
1. Manter ou remover do app?
2. Nome está correto?
3. Categoria/ícone está correto?
4. Há telefone, contato, alerta ou observação útil?</description>
      <Point><coordinates>-51.4132500000,-13.5476944444,0</coordinates></Point>
    </Placemark>
    <Placemark>
      <name>L06 | KM 0.0 | Ponte Cristalino</name>
      <styleUrl>#logistics</styleUrl>
      <description>Sugestão: Ponte
Distância da rota: 157.35 km

REVISAR:
1. Manter ou remover do app?
2. Nome está correto?
3. Categoria/ícone está correto?
4. Há telefone, contato, alerta ou observação útil?</description>
      <Point><coordinates>-51.3060485139,-14.2129734697,0</coordinates></Point>
    </Placemark>
    <Placemark>
      <name>L07 | KM 0.0 | Pousada Morada do Sol</name>
      <styleUrl>#logistics</styleUrl>
      <description>Sugestão: Pousada / apoio
Distância da rota: 158.48 km

REVISAR:
1. Manter ou remover do app?
2. Nome está correto?
3. Categoria/ícone está correto?
4. Há telefone, contato, alerta ou observação útil?</description>
      <Point><coordinates>-51.6992556230,-14.0878754103,0</coordinates></Point>
    </Placemark>
    <Placemark>
      <name>L08 | KM 0.0 | Cocalinho</name>
      <styleUrl>#logistics</styleUrl>
      <description>Sugestão: Cidade / apoio
Distância da rota: 174.65 km

REVISAR:
1. Manter ou remover do app?
2. Nome está correto?
3. Categoria/ícone está correto?
4. Há telefone, contato, alerta ou observação útil?</description>
      <Point><coordinates>-50.9950810175,-14.3961924652,0</coordinates></Point>
    </Placemark>
    <Placemark>
      <name>L09 | KM 0.0 | Barra do Garças</name>
      <styleUrl>#logistics</styleUrl>
      <description>Sugestão: Cidade / apoio
Distância da rota: 365.07 km

REVISAR:
1. Manter ou remover do app?
2. Nome está correto?
3. Categoria/ícone está correto?
4. Há telefone, contato, alerta ou observação útil?</description>
      <Point><coordinates>-52.2529148305,-15.8902103486,0</coordinates></Point>
    </Placemark>
  </Folder>
</Document>
</kml>
